FENGYUN 3D              
1 43010U 17072A   26157.85803405 -.00000097  00000+0 -23925-4 0  9991
2 43010  99.0127 132.0944 0002659  77.9917 282.1556 14.19736347443525
NOAA 20 (JPSS-1)        
1 43013U 17073A   26157.85128957  .00000074  00000+0  56224-4 0  9998
2 43013  98.7769  97.4059 0000528  38.9401 321.1813 14.19509844443008
GOES 17                 
1 43226U 18022A   26157.82881154 -.00000169  00000+0  00000+0 0  9993
2 43226   0.9101  85.8843 0000696   6.5894  11.6518  1.00272451 30321
SENTINEL-3B             
1 43437U 18039A   26157.60009424  .00000123  00000+0  68861-4 0  9996
2 43437  98.6250 225.2839 0000909  76.4687 283.6595 14.26738785422614
FENGYUN 2H              
1 43491U 18050A   26157.86228535 -.00000117  00000+0  00000+0 0  9993
2 43491   3.0042  79.1922 0001464 126.0379  79.9229  1.00271643 29334
METOP-C                 
1 43689U 18087A   26157.79147670  .00000109  00000+0  69515-4 0  9995
2 43689  98.6647 217.5847 0001369 140.7528 219.3749 14.21509366393357
GEO-KOMPSAT-2A          
1 43823U 18100A   26157.87194404 -.00000330  00000+0  00000+0 0  9993
2 43823   0.0494 134.5786 0002400 308.1886 254.6842  1.00271878 27524
METEOR-M2 2             
1 44387U 19038A   26157.84823144  .00000166  00000+0  91546-4 0  9993
2 44387  98.9147 144.9816 0002337  63.5182 296.6236 14.24363559359822
ARKTIKA-M 1             
1 47719U 21016A   26153.03917935 -.00000200  00000+0  00000+0 0  9993
2 47719  63.2379  59.8266 7283239 269.8643  14.6915  2.00628509 38489
FENGYUN 3E              
1 49008U 21062A   26157.84305363  .00000196  00000+0  11315-3 0  9994
2 49008  98.7495 161.3667 0002704 102.8538 257.2940 14.19903871255111
GOES 18                 
1 51850U 22021A   26157.74806534  .00000110  00000+0  00000+0 0  9994
2 51850   0.0388 141.8689 0000617 351.6439 253.9544  1.00272099  6482
NOAA 21 (JPSS-2)        
1 54234U 22150A   26157.81408433  .00000070  00000+0  53852-4 0  9993
2 54234  98.7057  96.7776 0001063 180.1231 179.9945 14.19563664185074
METEOSAT-12 (MTG-I1)    
1 54743U 22170C   26157.77518368  .00000005  00000+0  00000+0 0  9994
2 54743   0.7265  21.1627 0003484  70.3933  82.2739  1.00271570 12870
TIANMU-1 03             
1 55973U 23039A   26157.83110936  .00019125  00000+0  38032-3 0  9994
2 55973  97.5238 331.3975 0004062 124.5044 235.6589 15.46989749179230
TIANMU-1 04             
1 55974U 23039B   26157.82455145  .00019791  00000+0  38555-3 0  9997
2 55974  97.5174 330.5440 0004709 121.9588 238.2120 15.47576727179240
TIANMU-1 05             
1 55975U 23039C   26157.81137885  .00018219  00000+0  36337-3 0  9995
2 55975  97.5218 330.9960 0003699 139.7540 220.3984 15.46915912179212
TIANMU-1 06             
1 55976U 23039D   26157.82730019  .00019461  00000+0  38043-3 0  9991
2 55976  97.5226 331.6377 0003972 135.9587 224.1979 15.47484523179244
FENGYUN 3G              
1 56232U 23055A   26157.81097821  .00030890  00000+0  46737-3 0  9999
2 56232  49.9934  39.5074 0005545 156.6492 203.4729 15.54344814178392
METEOR-M2 3             
1 57166U 23091A   26157.84017260  .00000006  00000+0  21543-4 0  9993
2 57166  98.6086 213.0298 0003753 183.3761 176.7394 14.24045981153044
TIANMU-1 07             
1 57399U 23101A   26157.83036435  .00007807  00000+0  27393-3 0  9991
2 57399  97.2594 208.7373 0003465 143.0721 217.0759 15.29687103160063
TIANMU-1 08             
1 57400U 23101B   26157.33912880  .00008993  00000+0  31506-3 0  9994
2 57400  97.2582 208.0295 0004986 142.0036 218.1557 15.29687744159984
TIANMU-1 09             
1 57401U 23101C   26157.84606105  .00007693  00000+0  26969-3 0  9994
2 57401  97.2541 207.9459 0003824 151.0326 209.1128 15.29719982160067
TIANMU-1 10             
1 57402U 23101D   26157.87891987  .00008012  00000+0  28095-3 0  9990
2 57402  97.2620 209.0180 0005426 153.8251 206.3265 15.29691284160062
FENGYUN 3F              
1 57490U 23111A   26157.82721079  .00000053  00000+0  45165-4 0  9992
2 57490  98.6836 228.0287 0001571 100.5246 259.6108 14.19937390147399
ARKTIKA-M 2             
1 58584U 23198A   26154.30372208  .00000150  00000+0  00000+0 0  9990
2 58584  63.2209 155.9142 6898549 267.4684  18.7857  2.00591941 18047
TIANMU-1 11             
1 58645U 23205A   26157.89597287  .00006846  00000+0  26158-3 0  9994
2 58645  97.3451 179.6151 0010090  50.0963 310.1162 15.26888544135950
TIANMU-1 12             
1 58646U 23205B   26157.86608595  .00007393  00000+0  28273-3 0  9995
2 58646  97.3440 179.3435 0007999  37.8330 322.3470 15.26849838135934
TIANMU-1 13             
1 58647U 23205C   26157.89728309  .00006849  00000+0  26334-3 0  9996
2 58647  97.3468 179.6453 0007177  19.0744 341.0763 15.26704548135938
TIANMU-1 14             
1 58648U 23205D   26157.88279027  .00007084  00000+0  27184-3 0  9990
2 58648  97.3404 178.8210 0008148  22.5346 337.6249 15.26749071135937
TIANMU-1 19             
1 58660U 23208A   26157.76760723  .00009840  00000+0  32672-3 0  9992
2 58660  97.4493 274.0164 0004714  10.3896 349.7441 15.31416246135734
TIANMU-1 20             
1 58661U 23208B   26157.74820951  .00009991  00000+0  31951-3 0  9997
2 58661  97.4436 274.6214 0006966  13.5642 346.5786 15.32607404135825
