OBJECT_NAME,OBJECT_ID,EPOCH,MEAN_MOTION,ECCENTRICITY,INCLINATION,RA_OF_ASC_NODE,ARG_OF_PERICENTER,MEAN_ANOMALY,EPHEMERIS_TYPE,CLASSIFICATION_TYPE,NORAD_CAT_ID,ELEMENT_SET_NO,REV_AT_EPOCH,BSTAR,MEAN_MOTION_DOT,MEAN_MOTION_DDOT
FENGYUN 3D,2017-072A,2026-06-06T20:35:34.141920,14.19736347,.0002659,99.0127,132.0944,77.9917,282.1556,0,U,43010,999,44352,-.23925E-4,-.97E-6,0
NOAA 20 (JPSS-1),2017-073A,2026-06-06T20:25:51.418848,14.19509844,.0000528,98.7769,97.4059,38.9401,321.1813,0,U,43013,999,44300,.56224E-4,.74E-6,0
GOES 17,2018-022A,2026-06-06T19:53:29.317056,1.00272451,.0000696,0.9101,85.8843,6.5894,11.6518,0,U,43226,999,3032,0,-.169E-5,0
SENTINEL-3B,2018-039A,2026-06-06T14:24:08.142336,14.26738785,.0000909,98.6250,225.2839,76.4687,283.6595,0,U,43437,999,42261,.68861E-4,.123E-5,0
FENGYUN 2H,2018-050A,2026-06-06T20:41:41.454240,1.00271643,.0001464,3.0042,79.1922,126.0379,79.9229,0,U,43491,999,2933,0,-.117E-5,0
METOP-C,2018-087A,2026-06-06T18:59:43.586880,14.21509366,.0001369,98.6647,217.5847,140.7528,219.3749,0,U,43689,999,39335,.69515E-4,.109E-5,0
GEO-KOMPSAT-2A,2018-100A,2026-06-06T20:55:35.965056,1.00271878,.00024,0.0494,134.5786,308.1886,254.6842,0,U,43823,999,2752,0,-.33E-5,0
METEOR-M2 2,2019-038A,2026-06-06T20:21:27.196416,14.24363559,.0002337,98.9147,144.9816,63.5182,296.6236,0,U,44387,999,35982,.91546E-4,.166E-5,0
ARKTIKA-M 1,2021-016A,2026-06-02T00:56:25.095840,2.00628509,.72832396,63.2379,59.8266,269.8643,14.6915,0,U,47719,999,3848,0,-.2E-5,0
FENGYUN 3E,2021-062A,2026-06-06T20:13:59.833632,14.19903871,.0002704,98.7495,161.3667,102.8538,257.2940,0,U,49008,999,25511,.11315E-3,.196E-5,0
GOES 18,2022-021A,2026-06-06T17:57:12.845376,1.00272099,.0000617,0.0388,141.8689,351.6439,253.9544,0,U,51850,999,648,0,.11E-5,0
NOAA 21 (JPSS-2),2022-150A,2026-06-06T19:32:16.886112,14.19563664,.0001063,98.7057,96.7776,180.1231,179.9945,0,U,54234,999,18507,.53852E-4,.7E-6,0
METEOSAT-12 (MTG-I1),2022-170C,2026-06-06T18:36:15.869952,1.00271570,.0003484,0.7265,21.1627,70.3933,82.2739,0,U,54743,999,1287,0,.5E-7,0
TIANMU-1 03,2023-039A,2026-06-06T19:56:47.848704,15.46989749,.0004062,97.5238,331.3975,124.5044,235.6589,0,U,55973,999,17923,.38032E-3,.19125E-3,0
TIANMU-1 04,2023-039B,2026-06-06T19:47:21.245280,15.47576727,.0004709,97.5174,330.5440,121.9588,238.2120,0,U,55974,999,17924,.38555E-3,.19791E-3,0
TIANMU-1 05,2023-039C,2026-06-06T19:28:23.132640,15.46915912,.0003699,97.5218,330.9960,139.7540,220.3984,0,U,55975,999,17921,.36337E-3,.18219E-3,0
TIANMU-1 06,2023-039D,2026-06-06T19:51:18.736416,15.47484523,.0003972,97.5226,331.6377,135.9587,224.1979,0,U,55976,999,17924,.38043E-3,.19461E-3,0
FENGYUN 3G,2023-055A,2026-06-06T19:27:48.517344,15.54344814,.0005545,49.9934,39.5074,156.6492,203.4729,0,U,56232,999,17839,.46737E-3,.3089E-3,0
METEOR-M2 3,2023-091A,2026-06-06T20:09:50.912640,14.24045981,.0003753,98.6086,213.0298,183.3761,176.7394,0,U,57166,999,15304,.21543E-4,.6E-7,0
TIANMU-1 07,2023-101A,2026-06-06T19:55:43.479840,15.29687103,.0003465,97.2594,208.7373,143.0721,217.0759,0,U,57399,999,16006,.27393E-3,.7807E-4,0
TIANMU-1 08,2023-101B,2026-06-06T08:08:20.728320,15.29687744,.00049864,97.2582,208.0295,142.0036,218.1557,0,U,57400,999,15998,.31505615E-3,.8993E-4,0
TIANMU-1 09,2023-101C,2026-06-06T20:18:19.674720,15.29719982,.0003824,97.2541,207.9459,151.0326,209.1128,0,U,57401,999,16006,.26969E-3,.7693E-4,0
TIANMU-1 10,2023-101D,2026-06-06T21:05:38.676768,15.29691284,.0005426,97.2620,209.0180,153.8251,206.3265,0,U,57402,999,16006,.28095E-3,.8012E-4,0
FENGYUN 3F,2023-111A,2026-06-06T19:51:11.012256,14.19937390,.0001571,98.6836,228.0287,100.5246,259.6108,0,U,57490,999,14739,.45165E-4,.53E-6,0
ARKTIKA-M 2,2023-198A,2026-06-03T07:17:21.587712,2.00591941,.68985494,63.2209,155.9142,267.4684,18.7857,0,U,58584,999,1804,0,.15E-5,0
TIANMU-1 11,2023-205A,2026-06-06T21:30:12.055968,15.26888544,.001009,97.3451,179.6151,50.0963,310.1162,0,U,58645,999,13595,.26158E-3,.6846E-4,0
TIANMU-1 12,2023-205B,2026-06-06T20:47:09.826080,15.26849838,.0007999,97.3440,179.3435,37.8330,322.3470,0,U,58646,999,13593,.28273E-3,.7393E-4,0
TIANMU-1 13,2023-205C,2026-06-06T21:32:05.258976,15.26704548,.0007177,97.3468,179.6453,19.0744,341.0763,0,U,58647,999,13593,.26334E-3,.6849E-4,0
TIANMU-1 14,2023-205D,2026-06-06T21:11:13.079328,15.26749071,.0008148,97.3404,178.8210,22.5346,337.6249,0,U,58648,999,13593,.27184E-3,.7084E-4,0
TIANMU-1 19,2023-208A,2026-06-06T18:25:21.264672,15.31416246,.0004714,97.4493,274.0164,10.3896,349.7441,0,U,58660,999,13573,.32672E-3,.984E-4,0
TIANMU-1 20,2023-208B,2026-06-06T17:57:25.301664,15.32607404,.0006966,97.4436,274.6214,13.5642,346.5786,0,U,58661,999,13582,.31951E-3,.9991E-4,0
